[{"OBJECT_NAME":"STARLINK-6232","OBJECT_ID":"2023-088AP","EPOCH":"2026-03-09T22:00:01.999584","MEAN_MOTION":15.10502686,"ECCENTRICITY":0.00015635,"INCLINATION":42.9998,"RA_OF_ASC_NODE":92.9965,"ARG_OF_PERICENTER":301.7502,"MEAN_ANOMALY":161.9647,"EPHEMERIS_TYPE":0,"CLASSIFICATION_TYPE":"U","NORAD_CAT_ID":57085,"ELEMENT_SET_NO":999,"REV_AT_EPOCH":558,"BSTAR":0.0033529169,"MEAN_MOTION_DOT":0.00056427,"MEAN_MOTION_DDOT":0},{"OBJECT_NAME":"ICEYE-X67","OBJECT_ID":"2025-248K","EPOCH":"2026-03-09T22:00:01.999584","MEAN_MOTION":15.09405994,"ECCENTRICITY":0.00063951,"INCLINATION":45.4045,"RA_OF_ASC_NODE":295.7576,"ARG_OF_PERICENTER":209.4534,"MEAN_ANOMALY":51.9892,"EPHEMERIS_TYPE":0,"CLASSIFICATION_TYPE":"U","NORAD_CAT_ID":66302,"ELEMENT_SET_NO":999,"REV_AT_EPOCH":578,"BSTAR":-0.000164009,"MEAN_MOTION_DOT":-2.917e-5,"MEAN_MOTION_DDOT":0}]
